[{"OBJECT_NAME":"STARLINK-35528","OBJECT_ID":"2025-236J","EPOCH":"2026-03-09T19:13:20.386560","MEAN_MOTION":15.3018905,"ECCENTRICITY":0.00014165,"INCLINATION":53.1585,"RA_OF_ASC_NODE":103.2117,"ARG_OF_PERICENTER":85.9414,"MEAN_ANOMALY":274.1749,"EPHEMERIS_TYPE":0,"CLASSIFICATION_TYPE":"U","NORAD_CAT_ID":66094,"ELEMENT_SET_NO":999,"REV_AT_EPOCH":2296,"BSTAR":0.00061106331,"MEAN_MOTION_DOT":0.00017776,"MEAN_MOTION_DDOT":0},{"OBJECT_NAME":"BREEZE-KM R\/B","OBJECT_ID":"2016-011B","EPOCH":"2026-03-09T13:46:31.765728","MEAN_MOTION":15.28220455,"ECCENTRICITY":0.0143188,"INCLINATION":98.6722,"RA_OF_ASC_NODE":284.67,"ARG_OF_PERICENTER":63.2473,"MEAN_ANOMALY":298.3333,"EPHEMERIS_TYPE":0,"CLASSIFICATION_TYPE":"U","NORAD_CAT_ID":41336,"ELEMENT_SET_NO":999,"REV_AT_EPOCH":55224,"BSTAR":0.00023628,"MEAN_MOTION_DOT":8.734e-5,"MEAN_MOTION_DDOT":0}]
